{"type": "FeatureCollection", "features": [ {"type": "Feature", "properties": {"norad_id": 32432, "name": "FENGYUN 1C DEB", "group": "fengyun-1c-debris", "lat": 38.57299690175571, "lon": -158.7782577981865, "alt_km": 835.9884673404486, "timestamp": "2025-12-04T05:42:43.659534+00:00", "meta": {"OBJECT_NAME": "FENGYUN 1C DEB", "OBJECT_ID": "1999-025DAU", "EPOCH": "2025-12-02T08:25:01.319808", "MEAN_MOTION": 14.52224437, "ECCENTRICITY": 0.01734006, "INCLINATION": 98.1727, "RA_OF_ASC_NODE": 12.8023, "ARG_OF_PERICENTER": 337.8892, "MEAN_ANOMALY": 21.4887, "EPHEMERIS_TYPE": 0, "CLASSIFICATION_TYPE": "U", "NORAD_CAT_ID": 32432, "ELEMENT_SET_NO": 999, "REV_AT_EPOCH": 70544, "BSTAR": 0.0019660869, "MEAN_MOTION_DOT": 9.677e-05, "MEAN_MOTION_DDOT": 0}, "tle": {"line1": "1 32432U 99025DAU 25336.35070972  .00009677  00000+0  19661-2 0  9994", "line2": "2 32432  98.1727  12.8023 0173400 337.8892  21.4887 14.52224437705445"}}, "geometry": {"type": "Point", "coordinates": [-158.7782577981865, 38.57299690175571]}}, {"type": "Feature", "properties": {"norad_id": 32440, "name": "FENGYUN 1C DEB", "group": "fengyun-1c-debris", "lat": -7.568072685478131, "lon": -164.77327314673028, "alt_km": 1150.2756220607998, "timestamp": "2025-12-04T05:42:43.659544+00:00", "meta": {"OBJECT_NAME": "FENGYUN 1C DEB", "OBJECT_ID": "1999-025DBC", "EPOCH": "2025-12-03T20:55:48.416160", "MEAN_MOTION": 13.61179986, "ECCENTRICITY": 0.03212886, "INCLINATION": 99.1543, "RA_OF_ASC_NODE": 193.6557, "ARG_OF_PERICENTER": 113.9046, "MEAN_ANOMALY": 249.6104, "EPHEMERIS_TYPE": 0, "CLASSIFICATION_TYPE": "U", "NORAD_CAT_ID": 32440, "ELEMENT_SET_NO": 999, "REV_AT_EPOCH": 60165, "BSTAR": 0.0043307692, "MEAN_MOTION_DOT": 4.607e-05, "MEAN_MOTION_DDOT": 0}, "tle": {"line1": "1 32440U 99025DBC 25337.87208815  .00004607  00000+0  43308-2 0  9993", "line2": "2 32440  99.1543 193.6557 0321288 113.9046 249.6104 13.61179986601655"}}, "geometry": {"type": "Point", "coordinates": [-164.77327314673028, -7.568072685478131]}}, {"type": "Feature", "properties": {"norad_id": 32447, "name": "FENGYUN 1C DEB", "group": "fengyun-1c-debris", "lat": -75.15927233113496, "lon": 138.2159806981245, "alt_km": 971.7105240856681, "timestamp": "2025-12-04T05:42:43.659554+00:00", "meta": {"OBJECT_NAME": "FENGYUN 1C DEB", "OBJECT_ID": "1999-025DBK", "EPOCH": "2025-11-26T07:16:04.677024", "MEAN_MOTION": 13.9600218, "ECCENTRICITY": 0.00802127, "INCLINATION": 98.9321, "RA_OF_ASC_NODE": 346.9282, "ARG_OF_PERICENTER": 86.1501, "MEAN_ANOMALY": 274.8828, "EPHEMERIS_TYPE": 0, "CLASSIFICATION_TYPE": "U", "NORAD_CAT_ID": 32447, "ELEMENT_SET_NO": 999, "REV_AT_EPOCH": 67649, "BSTAR": 5.5043618e-05, "MEAN_MOTION_DOT": 3.5e-07, "MEAN_MOTION_DDOT": 0}, "tle": {"line1": "1 32447U 99025DBK 25330.30283191  .00000035  00000+0  55044-4 0  9994", "line2": "2 32447  98.9321 346.9282 0080212  86.1501 274.8828 13.96002180676493"}}, "geometry": {"type": "Point", "coordinates": [138.2159806981245, -75.15927233113496]}}, {"type": "Feature", "properties": {"norad_id": 32451, "name": "FENGYUN 1C DEB", "group": "fengyun-1c-debris", "lat": -31.07198002871525, "lon": 131.378245401155, "alt_km": 811.3927294583646, "timestamp": "2025-12-04T05:42:43.659564+00:00", "meta": {"OBJECT_NAME": "FENGYUN 1C DEB", "OBJECT_ID": "1999-025DBP", "EPOCH": "2025-12-03T04:26:27.786048", "MEAN_MOTION": 13.86493767, "ECCENTRICITY": 0.01859404, "INCLINATION": 99.9694, "RA_OF_ASC_NODE": 316.3408, "ARG_OF_PERICENTER": 220.1452, "MEAN_ANOMALY": 138.584, "EPHEMERIS_TYPE": 0, "CLASSIFICATION_TYPE": "U", "NORAD_CAT_ID": 32451, "ELEMENT_SET_NO": 999, "REV_AT_EPOCH": 61632, "BSTAR": 0.0026023894, "MEAN_MOTION_DOT": 3.41e-05, "MEAN_MOTION_DDOT": 0}, "tle": {"line1": "1 32451U 99025DBP 25337.18504382  .00003410  00000+0  26024-2 0  9994", "line2": "2 32451  99.9694 316.3408 0185940 220.1452 138.5840 13.86493767616322"}}, "geometry": {"type": "Point", "coordinates": [131.378245401155, -31.07198002871525]}}, {"type": "Feature", "properties": {"norad_id": 32453, "name": "FENGYUN 1C DEB", "group": "fengyun-1c-debris", "lat": 9.070754729311558, "lon": -113.80918512978072, "alt_km": 940.9265384055125, "timestamp": "2025-12-04T05:42:43.659574+00:00", "meta": {"OBJECT_NAME": "FENGYUN 1C DEB", "OBJECT_ID": "1999-025DBR", "EPOCH": "2025-11-28T10:57:12.038976", "MEAN_MOTION": 14.02200263, "ECCENTRICITY": 0.00971069, "INCLINATION": 99.3715, "RA_OF_ASC_NODE": 241.7597, "ARG_OF_PERICENTER": 245.8452, "MEAN_ANOMALY": 113.2535, "EPHEMERIS_TYPE": 0, "CLASSIFICATION_TYPE": "U", "NORAD_CAT_ID": 32453, "ELEMENT_SET_NO": 999, "REV_AT_EPOCH": 93228, "BSTAR": 0.00096884375, "MEAN_MOTION_DOT": 1.498e-05, "MEAN_MOTION_DDOT": 0}, "tle": {"line1": "1 32453U 99025DBR 25332.45638934  .00001498  00000+0  96884-3 0  9998", "line2": "2 32453  99.3715 241.7597 0097106 245.8452 113.2535 14.02200263932285"}}, "geometry": {"type": "Point", "coordinates": [-113.80918512978072, 9.070754729311558]}}, {"type": "Feature", "properties": {"norad_id": 32455, "name": "FENGYUN 1C DEB", "group": "fengyun-1c-debris", "lat": 11.252676489088659, "lon": 165.7336176375802, "alt_km": 1078.0046667111355, "timestamp": "2025-12-04T05:42:43.659584+00:00", "meta": {"OBJECT_NAME": "FENGYUN 1C DEB", "OBJECT_ID": "1999-025DBT", "EPOCH": "2025-11-30T08:31:26.630112", "MEAN_MOTION": 13.92295541, "ECCENTRICITY": 0.02377178, "INCLINATION": 101.7332, "RA_OF_ASC_NODE": 163.1966, "ARG_OF_PERICENTER": 176.0844, "MEAN_ANOMALY": 184.2238, "EPHEMERIS_TYPE": 0, "CLASSIFICATION_TYPE": "U", "NORAD_CAT_ID": 32455, "ELEMENT_SET_NO": 999, "REV_AT_EPOCH": 64243, "BSTAR": 0.0029260204, "MEAN_MOTION_DOT": 4.672e-05, "MEAN_MOTION_DDOT": 0}, "tle": {"line1": "1 32455U 99025DBT 25334.35516933  .00004672  00000+0  29260-2 0  9995", "line2": "2 32455 101.7332 163.1966 0237717 176.0844 184.2238 13.92295541642435"}}, "geometry": {"type": "Point", "coordinates": [165.7336176375802, 11.252676489088659]}}, {"type": "Feature", "properties": {"norad_id": 32456, "name": "FENGYUN 1C DEB", "group": "fengyun-1c-debris", "lat": 3.971723967678018, "lon": -63.28119850495472, "alt_km": 1006.6240854294829, "timestamp": "2025-12-04T05:42:43.659594+00:00", "meta": {"OBJECT_NAME": "FENGYUN 1C DEB", "OBJECT_ID": "1999-025DBU", "EPOCH": "2025-11-28T15:45:38.634624", "MEAN_MOTION": 13.3556135, "ECCENTRICITY": 0.03790377, "INCLINATION": 103.6671, "RA_OF_ASC_NODE": 108.2999, "ARG_OF_PERICENTER": 253.9297, "MEAN_ANOMALY": 101.9772, "EPHEMERIS_TYPE": 0, "CLASSIFICATION_TYPE": "U", "NORAD_CAT_ID": 32456, "ELEMENT_SET_NO": 999, "REV_AT_EPOCH": 60428, "BSTAR": 0.0020707074, "MEAN_MOTION_DOT": 1.513e-05, "MEAN_MOTION_DDOT": 0}, "tle": {"line1": "1 32456U 99025DBU 25332.65669716  .00001513  00000+0  20707-2 0  9993", "line2": "2 32456 103.6671 108.2999 0379037 253.9297 101.9772 13.35561350604289"}}, "geometry": {"type": "Point", "coordinates": [-63.28119850495472, 3.971723967678018]}}, {"type": "Feature", "properties": {"norad_id": 32458, "name": "FENGYUN 1C DEB", "group": "fengyun-1c-debris", "lat": -55.386126994774045, "lon": 10.670617149675937, "alt_km": 696.6603892345256, "timestamp": "2025-12-04T05:42:43.659603+00:00", "meta": {"OBJECT_NAME": "FENGYUN 1C DEB", "OBJECT_ID": "1999-025DBW", "EPOCH": "2025-12-01T20:28:51.339936", "MEAN_MOTION": 14.61990676, "ECCENTRICITY": 0.00410387, "INCLINATION": 99.0471, "RA_OF_ASC_NODE": 354.7155, "ARG_OF_PERICENTER": 47.1419, "MEAN_ANOMALY": 313.3215, "EPHEMERIS_TYPE": 0, "CLASSIFICATION_TYPE": "U", "NORAD_CAT_ID": 32458, "ELEMENT_SET_NO": 999, "REV_AT_EPOCH": 67630, "BSTAR": 0.0017761314, "MEAN_MOTION_DOT": 8.964e-05, "MEAN_MOTION_DDOT": 0}, "tle": {"line1": "1 32458U 99025DBW 25335.85337199  .00008964  00000+0  17761-2 0  9990", "line2": "2 32458  99.0471 354.7155 0041038  47.1419 313.3215 14.61990676676305"}}, "geometry": {"type": "Point", "coordinates": [10.670617149675937, -55.386126994774045]}}, {"type": "Feature", "properties": {"norad_id": 32459, "name": "FENGYUN 1C DEB", "group": "fengyun-1c-debris", "lat": -65.86137885248823, "lon": 153.6639565067552, "alt_km": 631.4640842085091, "timestamp": "2025-12-04T05:42:43.659613+00:00", "meta": {"OBJECT_NAME": "FENGYUN 1C DEB", "OBJECT_ID": "1999-025DBX", "EPOCH": "2025-12-01T11:39:14.293440", "MEAN_MOTION": 14.42724223, "ECCENTRICITY": 0.02128066, "INCLINATION": 98.3034, "RA_OF_ASC_NODE": 350.0004, "ARG_OF_PERICENTER": 220.4744, "MEAN_ANOMALY": 138.0452, "EPHEMERIS_TYPE": 0, "CLASSIFICATION_TYPE": "U", "NORAD_CAT_ID": 32459, "ELEMENT_SET_NO": 999, "REV_AT_EPOCH": 94388, "BSTAR": 0.00065445905, "MEAN_MOTION_DOT": 2.812e-05, "MEAN_MOTION_DDOT": 0}, "tle": {"line1": "1 32459U 99025DBX 25335.48558210  .00002812  00000+0  65446-3 0  9999", "line2": "2 32459  98.3034 350.0004 0212806 220.4744 138.0452 14.42724223943882"}}, "geometry": {"type": "Point", "coordinates": [153.6639565067552, -65.86137885248823]}}, {"type": "Feature", "properties": {"norad_id": 32460, "name": "FENGYUN 1C DEB", "group": "fengyun-1c-debris", "lat": 62.97490633939855, "lon": -39.37957411297481, "alt_km": 808.3616295727325, "timestamp": "2025-12-04T05:42:43.659623+00:00", "meta": {"OBJECT_NAME": "FENGYUN 1C DEB", "OBJECT_ID": "1999-025DBY", "EPOCH": "2025-12-03T03:14:00.944160", "MEAN_MOTION": 13.89519462, "ECCENTRICITY": 0.01856328, "INCLINATION": 98.0192, "RA_OF_ASC_NODE": 123.6253, "ARG_OF_PERICENTER": 150.9185, "MEAN_ANOMALY": 210.247, "EPHEMERIS_TYPE": 0, "CLASSIFICATION_TYPE": "U", "NORAD_CAT_ID": 32460, "ELEMENT_SET_NO": 999, "REV_AT_EPOCH": 65120, "BSTAR": 0.0017619598, "MEAN_MOTION_DOT": 2.44e-05, "MEAN_MOTION_DDOT": 0}, "tle": {"line1": "1 32460U 99025DBY 25337.13473315  .00002440  00000+0  17620-2 0  9994", "line2": "2 32460  98.0192 123.6253 0185632 150.9185 210.2470 13.89519462651200"}}, "geometry": {"type": "Point", "coordinates": [-39.37957411297481, 62.97490633939855]}}]}